NORAD_CAT_ID,OBJECT_NAME,OBJECT_TYPE,EPOCH,MEAN_MOTION,ECCENTRICITY,INCLINATION,RA_OF_ASC_NODE,ARG_OF_PERICENTER,MEAN_ANOMALY,BSTAR,MEAN_MOTION_DOT,MEAN_MOTION_DDOT,TLE_LINE0,TLE_LINE1,TLE_LINE2,SEMIMAJOR_AXIS,PERIOD,APOGEE,PERIGEE,DECAYED
52552.0,STARLINK-3966,PAYLOAD,2022-12-03 14:21:54,15.08835553,0.0002459,53.2213,80.6351,36.2708,323.8451,7.3827e-05,8.87e-06,0.0,0 STARLINK-3966,1 52552U 22051V   22337.59854360  .00000887  00000-0  73827-4 0  9990,2 52552  53.2213  80.6351 0002459  36.2708 323.8451 15.08835553 31481,6917.894,95.438,541.46,538.058,0.0
52552.0,STARLINK-3966,PAYLOAD,2022-12-03 15:57:17,15.08834824,0.0002469,53.2213,80.3379,35.6359,324.4798,6.6036e-05,7.63e-06,0.0,0 STARLINK-3966,1 52552U 22051V   22337.66478445  .00000763  00000-0  66036-4 0  9991,2 52552  53.2213  80.3379 0002469  35.6359 324.4798 15.08834824 31564,6917.896,95.438,541.469,538.053,0.0
52552.0,STARLINK-3966,PAYLOAD,2022-12-04 11:01:55,15.08834242,0.0002507,53.2221,76.7705,33.3647,326.7503,3.5958000000000004e-05,2.84e-06,0.0,0 STARLINK-3966,1 52552U 22051V   22338.45966734  .00000284  00000-0  35958-4 0  9999,2 52552  53.2221  76.7705 0002507  33.3647 326.7503 15.08834242 31612,6917.898,95.438,541.497,538.029,0.0
52552.0,STARLINK-3966,PAYLOAD,2022-12-04 12:37:18,15.08833848,0.0002488,53.2221,76.4733,41.0915,319.0265,4.7102e-05,4.61e-06,0.0,0 STARLINK-3966,1 52552U 22051V   22338.52590728  .00000461  00000-0  47102-4 0  9994,2 52552  53.2221  76.4733 0002488  41.0915 319.0265 15.08833848 31624,6917.899,95.438,541.485,538.043,0.0
52552.0,STARLINK-3966,PAYLOAD,2022-12-04 23:45:00,15.08841574,0.0002667,53.222,74.392,38.9589,321.1595,6.0673e-05,6.77e-06,0.0,0 STARLINK-3966,1 52552U 22051V   22338.98958335  .00000677  00000-0  60673-4 0  9993,2 52552  53.2220  74.3920 0002667  38.9589 321.1595 15.08841574 31769,6917.876,95.437,541.586,537.896,0.0
52552.0,STARLINK-3966,PAYLOAD,2022-12-05 06:06:32,15.0885128,0.0002695,53.2218,73.2027,38.3445,321.7738,-5.2305e-05,-1.121e-05,0.0,0 STARLINK-3966,1 52552U 22051V   22339.25454056 -.00001121  00000-0 -52305-4 0  9995,2 52552  53.2218  73.2027 0002695  38.3445 321.7738 15.08851280 31735,6917.846,95.437,541.575,537.847,0.0
52552.0,STARLINK-3966,PAYLOAD,2022-12-05 18:49:37,15.088427800000002,0.0002599,53.2208,70.8236,36.9567,323.1604,8.1153e-05,1.003e-05,0.0,0 STARLINK-3966,1 52552U 22051V   22339.78445997  .00001003  00000-0  81153-4 0  9997,2 52552  53.2208  70.8236 0002599  36.9567 323.1604 15.08842780 31813,6917.871999999999,95.437,541.535,537.939,0.0
52552.0,STARLINK-3966,PAYLOAD,2022-12-06 05:57:19,15.08843257,0.0002587,53.2215,68.7424,34.7921,325.324,0.00010507,1.384e-05,0.0,0 STARLINK-3966,1 52552U 22051V   22340.24813799  .00001384  00000-0  10507-3 0  9995,2 52552  53.2215  68.7424 0002587  34.7921 325.3240 15.08843257 31958,6917.87,95.437,541.525,537.946,0.0
52552.0,STARLINK-3966,PAYLOAD,2022-12-06 17:05:02,15.08829209,0.0002633,53.2202,66.6603,31.4698,328.6451,-6.007e-05,-1.244e-05,0.0,0 STARLINK-3966,1 52552U 22051V   22340.71183248 -.00001244  00000-0 -60070-4 0  9994,2 52552  53.2202  66.6603 0002633  31.4698 328.6451 15.08829209 31958,6917.913000000001,95.438,541.6,537.957,0.0
52552.0,STARLINK-3966,PAYLOAD,2022-12-07 15:20:25,15.08841478,0.0002806,53.2202,62.5007,29.2297,330.8851,2.5012e-05,1.1e-06,0.0,0 STARLINK-3966,1 52552U 22051V   22341.63918678  .00000110  00000-0  25012-4 0  9995,2 52552  53.2202  62.5007 0002806  29.2297 330.8851 15.08841478 32168,6917.876,95.437,541.682,537.8,0.0
52552.0,STARLINK-3966,PAYLOAD,2022-12-08 05:38:52,15.08861681,0.000244,53.2207,59.823,43.5232,316.5952,0.00021998,3.216e-05,0.0,0 STARLINK-3966,1 52552U 22051V   22342.23532737  .00003216  00000-0  21998-3 0  9998,2 52552  53.2207  59.8230 0002440  43.5232 316.5952 15.08861681 32253,6917.814,95.436,541.367,537.991,0.0
52552.0,STARLINK-3966,PAYLOAD,2022-12-08 12:00:25,15.08856756,0.000276,53.2192,58.6348,39.4792,320.6401,0.00010975,1.459e-05,0.0,0 STARLINK-3966,1 52552U 22051V   22342.50029245  .00001459  00000-0  10975-3 0  9993,2 52552  53.2192  58.6348 0002760  39.4792 320.6401 15.08856756 32222,6917.829000000002,95.436,541.6030000000002,537.785,0.0
52552.0,STARLINK-3966,PAYLOAD,2022-12-08 16:46:34,15.08846695,0.0002461,53.219,57.7393,29.7312,330.38199999999995,0.00012177,1.651e-05,0.0,0 STARLINK-3966,1 52552U 22051V   22342.69901619  .00001651  00000-0  12177-3 0  9997,2 52552  53.2190  57.7393 0002461  29.7312 330.3820 15.08846695 32323,6917.86,95.437,541.427,538.0219999999998,0.0
52552.0,STARLINK-3966,PAYLOAD,2022-12-09 05:29:40,15.08843409,0.0002476,53.2175,55.3628,29.6817,330.4315,0.00021692,3.166e-05,0.0,0 STARLINK-3966,1 52552U 22051V   22343.22893540  .00003166  00000-0  21692-3 0  9995,2 52552  53.2175  55.3628 0002476  29.6817 330.4315 15.08843409 32337,6917.87,95.437,541.448,538.0219999999998,0.0
52552.0,STARLINK-3966,PAYLOAD,2022-12-10 05:20:29,15.08828992,0.0003032,53.22,50.9038,8.0519,352.0522,-0.00016175,-2.861e-05,0.0,0 STARLINK-3966,1 52552U 22051V   22344.22256224 -.00002861  00000-0 -16175-3 0  9991,2 52552  53.2200  50.9038 0003032   8.0519 352.0522 15.08828992 32555,6917.9140000000025,95.438,541.877,537.682,0.0
52552.0,STARLINK-3966,PAYLOAD,2022-12-10 10:06:38,15.08837943,0.0002575,53.2193,50.0094,33.5587,326.5568,-0.0001315999999999,-2.382e-05,0.0,0 STARLINK-3966,1 52552U 22051V   22344.42127545 -.00002382  00000-0 -13160-3 0  9995,2 52552  53.2193  50.0094 0002575  33.5587 326.5568 15.08837943 32583,6917.887,95.438,541.533,537.97,0.0
52552.0,STARLINK-3966,PAYLOAD,2022-12-11 03:35:49,15.08921513,0.0002775,53.2194,46.737,25.8378,334.2752,-0.0011026,-0.00017834,0.0,0 STARLINK-3966,1 52552U 22051V   22345.14987912 -.00017834  00000-0 -11026-2 0  9993,2 52552  53.2194  46.7370 0002775  25.8378 334.2752 15.08921513 32697,6917.630999999999,95.432,541.4159999999998,537.577,0.0
52552.0,STARLINK-3966,PAYLOAD,2022-12-11 13:08:11,15.08830627,0.0002861,53.2182,44.9537,27.1947,332.9194,0.00024001,3.533e-05,0.0,0 STARLINK-3966,1 52552U 22051V   22345.54735337  .00003533  00000-0  24001-3 0  9996,2 52552  53.2182  44.9537 0002861  27.1947 332.9194 15.08830627 32759,6917.909000000002,95.438,541.753,537.795,0.0
52552.0,STARLINK-3966,PAYLOAD,2022-12-11 14:43:35,15.087922400000002,0.0003269,53.22,44.6579,24.6452,335.4696,0.00080732,0.00012568,0.0,0 STARLINK-3966,1 52552U 22051V   22345.61361108  .00012568  00000-0  80732-3 0  9996,2 52552  53.2200  44.6579 0003269  24.6452 335.4696 15.08792240 32763,6918.026,95.441,542.153,537.63,0.0
52552.0,STARLINK-3966,PAYLOAD,2022-12-12 05:02:02,15.08836326,0.0003084,53.22,41.982,28.4613,331.6547,0.00019447,2.808e-05,0.0,0 STARLINK-3966,1 52552U 22051V   22346.20975589  .00002808  00000-0  19447-3 0  9997,2 52552  53.2200  41.9820 0003084  28.4613 331.6547 15.08836326 32855,6917.892,95.438,541.89,537.623,0.0
52552.0,STARLINK-3966,PAYLOAD,2022-12-12 11:23:35,15.08834905,0.0003078,53.2198,40.7933,37.6464,322.4743,0.00011299,1.51e-05,0.0,0 STARLINK-3966,1 52552U 22051V   22346.47471902  .00001510  00000-0  11299-3 0  9992,2 52552  53.2198  40.7933 0003078  37.6464 322.4743 15.08834905 32826,6917.896,95.438,541.89,537.632,0.0
52552.0,STARLINK-3966,PAYLOAD,2022-12-13 09:38:59,15.08840538,0.0002962,53.2201,36.6302,26.5538,333.5606,5.2634e-05,5.49e-06,0.0,0 STARLINK-3966,1 52552U 22051V   22347.40207585  .00000549  00000-0  52634-4 0  9990,2 52552  53.2201  36.6302 0002962  26.5538 333.5606 15.08840538 33039,6917.879,95.438,541.793,537.695,0.0
52552.0,STARLINK-3966,PAYLOAD,2022-12-13 12:49:45,15.08837002,0.0003083,53.22,36.0354,30.6142,329.5030000000001,1.7692999999999998e-05,-7e-08,0.0,0 STARLINK-3966,1 52552U 22051V   22347.53455893 -.00000007  00000-0  17693-4 0  9997,2 52552  53.2200  36.0354 0003083  30.6142 329.5030 15.08837002 32982,6917.89,95.438,541.887,537.622,0.0
52552.0,STARLINK-3966,PAYLOAD,2022-12-13 16:00:31,15.08842637,0.0002503,53.2173,35.4405,29.648000000000003,330.4654,5.3125e-06,-2.04e-06,0.0,0 STARLINK-3966,1 52552U 22051V   22347.66703400 -.00000204  00000-0  53125-5 0  9991,2 52552  53.2173  35.4405 0002503  29.6480 330.4654 15.08842637 33007,6917.871999999999,95.437,541.469,538.006,0.0
52552.0,STARLINK-3966,PAYLOAD,2022-12-14 12:40:32,15.08842562,0.0002788999999999,53.2193,31.5723,31.0241,329.0915,7.2011e-05,8.58e-06,0.0,0 STARLINK-3966,1 52552U 22051V   22348.52815359  .00000858  00000-0  72011-4 0  9992,2 52552  53.2193  31.5723 0002789  31.0241 329.0915 15.08842562 33200,6917.873000000001,95.437,541.6669999999998,537.808,0.0
52552.0,STARLINK-3966,PAYLOAD,2022-12-14 20:37:27,15.08847069,0.0002011,53.2193,30.0856,38.955,321.1586,-6.5624e-05,-1.333e-05,0.0,0 STARLINK-3966,1 52552U 22051V   22348.85935130 -.00001333  00000-0 -65624-4 0  9991,2 52552  53.2193  30.0856 0002011  38.9550 321.1586 15.08847069 33189,6917.859,95.437,541.115,538.3330000000002,0.0
52552.0,STARLINK-3966,PAYLOAD,2022-12-15 12:31:18,15.0885126,0.0002731,53.2195,27.1128,30.2161,329.8988,7.7403e-05,9.44e-06,0.0,0 STARLINK-3966,1 52552U 22051V   22349.52174747  .00000944  00000-0  77403-4 0  9998,2 52552  53.2195  27.1128 0002731  30.2161 329.8988 15.08851260 33282,6917.846,95.437,541.6,537.822,0.0
52552.0,STARLINK-3966,PAYLOAD,2022-12-16 06:00:34,15.08841123,0.000282,53.219,23.8415,31.0899,329.0259,8.449799999999999e-05,1.057e-05,0.0,0 STARLINK-3966,1 52552U 22051V   22350.25039399  .00001057  00000-0  84498-4 0  9991,2 52552  53.2190  23.8415 0002820  31.0899 329.0259 15.08841123 33465,6917.877,95.437,541.693,537.7909999999998,0.0
52552.0,STARLINK-3966,PAYLOAD,2022-12-16 10:46:43,15.08832831,0.0002761,53.2182,22.9486,28.2173,331.8968,4.2378e-06,-2.21e-06,0.0,0 STARLINK-3966,1 52552U 22051V   22350.44912008 -.00000221  00000-0  42378-5 0  9994,2 52552  53.2182  22.9486 0002761  28.2173 331.8968 15.08832831 33498,6917.901999999999,95.438,541.677,537.857,0.0
